{
    "links": {
        "self": "http://www.neowsapp.com/rest/v1/neo/3311960?api_key=iIulBulltgU6a56xZRHN4H3l9WmuAYTsLGpBGhQ2"
    },
    "id": "3311960",
    "neo_reference_id": "3311960",
    "name": "(2006 AH4)",
    "designation": "2006 AH4",
    "nasa_jpl_url": "http://ssd.jpl.nasa.gov/sbdb.cgi?sstr=3311960",
    "absolute_magnitude_h": 26.3,
    "estimated_diameter": {
        "kilometers": {
            "estimated_diameter_min": 0.0146067964,
            "estimated_diameter_max": 0.0326617897
        },
        "meters": {
            "estimated_diameter_min": 14.6067964271,
            "estimated_diameter_max": 32.6617897446
        },
        "miles": {
            "estimated_diameter_min": 0.0090762397,
            "estimated_diameter_max": 0.020295089
        },
        "feet": {
            "estimated_diameter_min": 47.92256199,
            "estimated_diameter_max": 107.1581062656
        }
    },
    "is_potentially_hazardous_asteroid": false,
    "close_approach_data": [
        {
            "close_approach_date": "2006-01-15",
            "close_approach_date_full": "2006-Jan-15 06:33",
            "epoch_date_close_approach": 1137306780000,
            "relative_velocity": {
                "kilometers_per_second": "6.2324341492",
                "kilometers_per_hour": "22436.7629372099",
                "miles_per_hour": "13941.3319484013"
            },
            "miss_distance": {
                "astronomical": "0.0463522831",
                "lunar": "18.0310381259",
                "kilometers": "6934202.821396997",
                "miles": "4308713.8355006786"
            },
            "orbiting_body": "Earth"
        },
        {
            "close_approach_date": "2083-03-18",
            "close_approach_date_full": "2083-Mar-18 17:28",
            "epoch_date_close_approach": 3572616480000,
            "relative_velocity": {
                "kilometers_per_second": "15.6514030992",
                "kilometers_per_hour": "56345.051156962",
                "miles_per_hour": "35010.6235925023"
            },
            "miss_distance": {
                "astronomical": "0.3293442357",
                "lunar": "128.1149076873",
                "kilometers": "49269196.157497959",
                "miles": "30614458.8809474742"
            },
            "orbiting_body": "Earth"
        }
    ],
    "orbital_data": {
        "orbit_id": "7",
        "orbit_determination_date": "2017-04-06 09:09:27",
        "first_observation_date": "2006-01-07",
        "last_observation_date": "2006-01-10",
        "data_arc_in_days": 3,
        "observations_used": 25,
        "orbit_uncertainty": "8",
        "minimum_orbit_intersection": ".0321296",
        "jupiter_tisserand_invariant": "3.774",
        "epoch_osculation": "2453744.5",
        "eccentricity": ".4723103069461182",
        "semi_major_axis": "1.926076990532785",
        "inclination": ".666171596334593",
        "ascending_node_longitude": "279.314100726712",
        "orbital_period": "976.3575557028549",
        "perihelion_distance": "1.01637097593239",
        "perihelion_argument": "208.6811722753457",
        "aphelion_distance": "2.835783005133181",
        "perihelion_time": "2453760.882152331624",
        "mean_anomaly": "353.9596157115421",
        "mean_motion": ".3687173801208976",
        "equinox": "J2000",
        "orbit_class": {
            "orbit_class_type": "APO",
            "orbit_class_description": "Near-Earth asteroid orbits which cross the Earth’s orbit similar to that of 1862 Apollo",
            "orbit_class_range": "a (semi-major axis) > 1.0 AU; q (perihelion) < 1.017 AU"
        }
    },
    "is_sentry_object": false
}